OBJECT_NAME,OBJECT_ID,EPOCH,MEAN_MOTION,ECCENTRICITY,INCLINATION,RA_OF_ASC_NODE,ARG_OF_PERICENTER,MEAN_ANOMALY,EPHEMERIS_TYPE,CLASSIFICATION_TYPE,NORAD_CAT_ID,ELEMENT_SET_NO,REV_AT_EPOCH,BSTAR,MEAN_MOTION_DOT,MEAN_MOTION_DDOT
STARLINK-37440,2026-114H,2026-06-14T12:09:43.396128,15.80893538,.0001005,53.1581,215.2681,69.6915,290.4215,0,U,69189,999,435,.53775E-3,.106858E-2,0
STARLINK-37282,2026-114J,2026-06-14T11:36:38.030400,15.78091257,.0001233,53.1583,215.8554,111.4742,248.6411,0,U,69190,999,434,.87484E-3,.15425E-2,0
STARLINK-37422,2026-114K,2026-06-14T09:46:55.153056,15.81720248,.0004845,53.1574,216.0862,229.5723,130.4878,0,U,69191,999,433,.27482E-2,.604619E-2,0
STARLINK-37424,2026-114L,2026-06-14T11:36:47.613024,15.77946389,.0008573,53.1579,215.8567,21.0531,339.0842,0,U,69192,999,434,-.13617E-2,-.23045E-2,0
STARLINK-36666,2026-114M,2026-06-14T00:00:02.000160,15.80829294,.00010632,53.1576,218.1310,91.0304,107.0057,0,U,69193,999,430,.37329711E-3,.73457E-3,0
STARLINK-37355,2026-114N,2026-06-14T11:17:11.695200,15.80893543,.0000788,53.1575,215.7668,72.2693,287.8416,0,U,69194,999,434,.55712E-3,.110784E-2,0
STARLINK-37166,2026-114P,2026-06-14T11:15:02.367360,15.80891787,.0001397,53.1574,215.7561,61.5324,298.5839,0,U,69195,999,434,.74418E-3,.148865E-2,0
STARLINK-36933,2026-114Q,2026-06-14T11:16:06.736224,15.80883258,.0000858,53.1576,215.7611,87.3257,272.7864,0,U,69196,999,434,.94245E-3,.189537E-2,0
STARLINK-37419,2026-114R,2026-06-14T11:13:57.309024,15.80919710,.0001255,53.1574,215.7509,98.4468,261.6697,0,U,69197,999,434,.92645E-3,.186557E-2,0
STARLINK-37321,2026-114S,2026-06-14T11:12:52.452864,15.80911612,.0001472,53.1576,215.7460,78.7102,281.4086,0,U,69198,999,434,.72507E-3,.145095E-2,0
STARLINK-37406,2026-114T,2026-06-14T11:11:47.632128,15.80910844,.0001307,53.1574,215.7410,76.2487,283.8681,0,U,69199,999,434,.7183E-3,.143704E-2,0
STARLINK-37761,2026-114U,2026-06-14T11:10:42.876192,15.80900565,.0001186,53.1574,215.7345,73.1246,286.9907,0,U,69200,999,434,.60351E-3,.120238E-2,0
STARLINK-37754,2026-114V,2026-06-14T11:09:21.236832,15.80904192,.0001211,53.1573,215.7290,92.2328,267.8833,0,U,69201,999,434,.59547E-3,.118626E-2,0
STARLINK-37649,2026-114W,2026-06-14T11:08:33.170784,15.80921534,.0001088,53.1572,215.7253,100.9093,259.2052,0,U,69202,999,434,.90736E-3,.182629E-2,0
STARLINK-37604,2026-114X,2026-06-14T11:07:28.536672,15.80897110,.0001478,53.1575,215.7201,52.3424,307.7733,0,U,69203,999,434,.64047E-3,.127739E-2,0
STARLINK-37669,2026-114Y,2026-06-14T11:06:24.000192,15.80902459,.0001481,53.1571,215.7150,47.9962,312.1186,0,U,69204,999,434,.1028E-2,.207429E-2,0
STARLINK-37691,2026-114Z,2026-06-14T11:20:15.645984,15.78056954,.0001261,53.1580,215.7783,83.3059,276.8106,0,U,69205,999,434,.3966E-3,.68755E-3,0
STARLINK-37671,2026-114AA,2026-06-14T12:00:02.998944,15.78055046,.0001542,53.1587,215.5577,61.7110,137.0270,0,U,69206,999,438,-.21349E-3,-.37575E-3,0
STARLINK-37647,2026-114AB,2026-06-14T11:05:18.907296,15.80901440,.0001597,53.1577,215.7094,64.5395,295.5793,0,U,69207,999,434,.69444E-3,.138768E-2,0
STARLINK-37562,2026-114AC,2026-06-14T11:12:40.286016,15.78065931,.0001268,53.1587,215.7443,73.7716,286.3444,0,U,69208,999,434,.46546E-3,.80958E-3,0
STARLINK-37682,2026-114AD,2026-06-14T11:00:59.647680,15.80915679,.0001504,53.1577,215.6887,67.4511,292.6671,0,U,69209,999,434,.87354E-3,.175605E-2,0
STARLINK-37402,2026-114AE,2026-06-14T10:59:54.942720,15.80913267,.0001488,53.1572,215.6846,76.0257,284.0931,0,U,69210,999,434,.10345E-2,.20888E-2,0
STARLINK-37613,2026-115A,2026-06-14T12:00:02.998944,15.49119953,.0001213,97.2833,182.5890,103.0449,340.7800,0,U,69211,999,426,.21103E-2,.116108E-2,0
STARLINK-37713,2026-115B,2026-06-14T12:00:02.998944,15.53263732,.0001189,97.2833,182.7111,111.9818,261.8273,0,U,69212,999,426,-.46465E-1,-.258366E-1,0
STARLINK-37716,2026-115C,2026-06-14T12:00:02.998944,15.58095344,.0001672,97.2846,182.7617,74.4545,48.5588,0,U,69213,999,426,-.38052E-1,-.2487792E-1,0
STARLINK-37620,2026-115D,2026-06-14T12:00:02.998944,15.49143965,.0000637,97.2835,182.5536,102.9871,261.2603,0,U,69214,999,426,.18302E-2,.100572E-2,0
STARLINK-37700,2026-115E,2026-06-14T11:20:41.794944,15.49201874,.0001499,97.2832,182.4376,85.2404,274.9018,0,U,69215,999,423,.80442E-3,.43924E-3,0
STARLINK-37766,2026-115F,2026-06-14T12:00:02.998944,15.62334986,.0001292,97.2845,182.7881,81.1474,109.8972,0,U,69216,999,426,-.16085E-1,-.1268601E-1,0
STARLINK-37763,2026-115G,2026-06-14T12:00:02.998944,15.57364258,.0001785,97.2844,182.7529,79.5845,29.5045,0,U,69217,999,426,-.38287E-1,-.2441988E-1,0
STARLINK-37724,2026-115H,2026-06-14T12:00:02.998944,15.66990872,.0001467,97.2842,182.8139,114.0414,139.1003,0,U,69218,999,426,-.27545E-1,-.2544329E-1,0
