STARLINK-37440          
1 69189U 26114H   26165.50675227  .00106858  00000+0  53775-3 0  9998
2 69189  53.1581 215.2681 0001005  69.6915 290.4215 15.80893538  4350
STARLINK-37282          
1 69190U 26114J   26165.48377350  .00154250  00000+0  87484-3 0  9996
2 69190  53.1583 215.8554 0001233 111.4742 248.6411 15.78091257  4343
STARLINK-37422          
1 69191U 26114K   26165.40758279  .00604619  00000+0  27482-2 0  9992
2 69191  53.1574 216.0862 0004845 229.5723 130.4878 15.81720248  4338
STARLINK-37424          
1 69192U 26114L   26165.48388441 -.00230450  00000+0 -13617-2 0  9996
2 69192  53.1579 215.8567 0008573  21.0531 339.0842 15.77946389  4347
STARLINK-36666          
1 69193U 26114M   26165.00002315  .00073457  00000+0  37330-3 0  9997
2 69193  53.1576 218.1310 0001063  91.0304 107.0057 15.80829294  4305
STARLINK-37355          
1 69194U 26114N   26165.47027425  .00110784  00000+0  55712-3 0  9997
2 69194  53.1575 215.7668 0000788  72.2693 287.8416 15.80893543  4347
STARLINK-37166          
1 69195U 26114P   26165.46877740  .00148865  00000+0  74418-3 0  9995
2 69195  53.1574 215.7561 0001397  61.5324 298.5839 15.80891787  4344
STARLINK-36933          
1 69196U 26114Q   26165.46952241  .00189537  00000+0  94245-3 0  9997
2 69196  53.1576 215.7611 0000858  87.3257 272.7864 15.80883258  4341
STARLINK-37419          
1 69197U 26114R   26165.46802441  .00186557  00000+0  92645-3 0  9995
2 69197  53.1574 215.7509 0001255  98.4468 261.6697 15.80919710  4349
STARLINK-37321          
1 69198U 26114S   26165.46727376  .00145095  00000+0  72507-3 0  9996
2 69198  53.1576 215.7460 0001472  78.7102 281.4086 15.80911612  4340
STARLINK-37406          
1 69199U 26114T   26165.46652352  .00143704  00000+0  71830-3 0  9991
2 69199  53.1574 215.7410 0001307  76.2487 283.8681 15.80910844  4343
STARLINK-37761          
1 69200U 26114U   26165.46577403  .00120238  00000+0  60351-3 0  9990
2 69200  53.1574 215.7345 0001186  73.1246 286.9907 15.80900565  4341
STARLINK-37754          
1 69201U 26114V   26165.46482913  .00118626  00000+0  59547-3 0  9995
2 69201  53.1573 215.7290 0001211  92.2328 267.8833 15.80904192  4348
STARLINK-37649          
1 69202U 26114W   26165.46427281  .00182629  00000+0  90736-3 0  9992
2 69202  53.1572 215.7253 0001088 100.9093 259.2052 15.80921534  4342
STARLINK-37604          
1 69203U 26114X   26165.46352473  .00127739  00000+0  64047-3 0  9990
2 69203  53.1575 215.7201 0001478  52.3424 307.7733 15.80897110  4347
STARLINK-37669          
1 69204U 26114Y   26165.46277778  .00207429  00000+0  10280-2 0  9999
2 69204  53.1571 215.7150 0001481  47.9962 312.1186 15.80902459  4343
STARLINK-37691          
1 69205U 26114Z   26165.47240331  .00068755  00000+0  39660-3 0  9997
2 69205  53.1580 215.7783 0001261  83.3059 276.8106 15.78056954  4348
STARLINK-37671          
1 69206U 26114AA  26165.50003471 -.00037575  00000+0 -21349-3 0  9997
2 69206  53.1587 215.5577 0001542  61.7110 137.0270 15.78055046  4380
STARLINK-37647          
1 69207U 26114AB  26165.46202439  .00138768  00000+0  69444-3 0  9990
2 69207  53.1577 215.7094 0001597  64.5395 295.5793 15.80901440  4349
STARLINK-37562          
1 69208U 26114AC  26165.46713294  .00080958  00000+0  46546-3 0  9992
2 69208  53.1587 215.7443 0001268  73.7716 286.3444 15.78065931  4347
STARLINK-37682          
1 69209U 26114AD  26165.45902370  .00175605  00000+0  87354-3 0  9993
2 69209  53.1577 215.6887 0001504  67.4511 292.6671 15.80915679  4342
STARLINK-37402          
1 69210U 26114AE  26165.45827480  .00208880  00000+0  10345-2 0  9990
2 69210  53.1572 215.6846 0001488  76.0257 284.0931 15.80913267  4343
STARLINK-37613          
1 69211U 26115A   26165.50003471  .00116108  00000+0  21103-2 0  9999
2 69211  97.2833 182.5890 0001213 103.0449 340.7800 15.49119953  4265
STARLINK-37713          
1 69212U 26115B   26165.50003471 -.02583660  00000+0 -46465-1 0  9992
2 69212  97.2833 182.7111 0001189 111.9818 261.8273 15.53263732  4261
STARLINK-37716          
1 69213U 26115C   26165.50003471 -.02487792  00000+0 -38052-1 0  9995
2 69213  97.2846 182.7617 0001672  74.4545  48.5588 15.58095344  4260
STARLINK-37620          
1 69214U 26115D   26165.50003471  .00100572  00000+0  18302-2 0  9997
2 69214  97.2835 182.5536 0000637 102.9871 261.2603 15.49143965  4261
STARLINK-37700          
1 69215U 26115E   26165.47270596  .00043924  00000+0  80442-3 0  9990
2 69215  97.2832 182.4376 0001499  85.2404 274.9018 15.49201874  4234
STARLINK-37766          
1 69216U 26115F   26165.50003471 -.01268601  00000+0 -16085-1 0  9995
2 69216  97.2845 182.7881 0001292  81.1474 109.8972 15.62334986  4260
STARLINK-37763          
1 69217U 26115G   26165.50003471 -.02441988  00000+0 -38287-1 0  9996
2 69217  97.2844 182.7529 0001785  79.5845  29.5045 15.57364258  4267
STARLINK-37724          
1 69218U 26115H   26165.50003471 -.02544329  00000+0 -27545-1 0  9995
2 69218  97.2842 182.8139 0001467 114.0414 139.1003 15.66990872  4267
